STARLINK-30708          
1 57944U 23148K   26068.17332604 -.00001728  00000+0 -46254-4 0  9999
2 57944  53.1613  26.6560 0001227  82.5112 277.6028 15.30191809138344
TRANSPORTER-12 OBJECT AZ
1 62656U 25009AZ  26068.71026235  .00016057  00000+0  54903-3 0  9991
2 62656  97.3981 151.9913 0000987  45.3581 314.7740 15.30349724 63792
