[{"OBJECT_NAME":"STARLINK-30708","OBJECT_ID":"2023-148K","EPOCH":"2026-03-09T04:09:35.369856","MEAN_MOTION":15.30191809,"ECCENTRICITY":0.00012271,"INCLINATION":53.1613,"RA_OF_ASC_NODE":26.656,"ARG_OF_PERICENTER":82.5112,"MEAN_ANOMALY":277.6028,"EPHEMERIS_TYPE":0,"CLASSIFICATION_TYPE":"U","NORAD_CAT_ID":57944,"ELEMENT_SET_NO":999,"REV_AT_EPOCH":13834,"BSTAR":-4.6253536e-5,"MEAN_MOTION_DOT":-1.728e-5,"MEAN_MOTION_DDOT":0},{"OBJECT_NAME":"TRANSPORTER-12 OBJECT AZ","OBJECT_ID":"2025-009AZ","EPOCH":"2026-03-09T17:02:46.667040","MEAN_MOTION":15.30349724,"ECCENTRICITY":9.87e-5,"INCLINATION":97.3981,"RA_OF_ASC_NODE":151.9913,"ARG_OF_PERICENTER":45.3581,"MEAN_ANOMALY":314.774,"EPHEMERIS_TYPE":0,"CLASSIFICATION_TYPE":"U","NORAD_CAT_ID":62656,"ELEMENT_SET_NO":999,"REV_AT_EPOCH":6379,"BSTAR":0.00054902545,"MEAN_MOTION_DOT":0.00016057,"MEAN_MOTION_DDOT":0}]
